QIANFAN-81              
1 63167U 25046J   25335.45358968  .00000134  00000+0  18844-3 0  9991
2 63167  88.9754 321.0408 0015513 147.0660 213.1460 13.50998613 45969
QIANFAN-82              
1 63168U 25046K   25335.48741983  .00000096  00000+0  13002-3 0  9996
2 63168  88.9755 321.0812 0013441 153.4960 206.6881 13.50972550 45957
QIANFAN-83              
1 63169U 25046L   25335.45842065  .00000072  00000+0  77612-4 0  9999
2 63169  88.9755 320.8827 0015146 140.8444 219.3812 13.61970644 46064
QIANFAN-84              
1 63170U 25046M   25335.44125249 -.00000037  00000+0 -76282-4 0  9993
2 63170  88.9751 321.2188 0016466 151.8802 208.3242 13.50984779 45878
QIANFAN-85              
1 63171U 25046N   25335.43792157  .00000136  00000+0  19246-3 0  9995
2 63171  88.9754 321.0908 0013824 152.6797 207.5084 13.50972617 45948
QIANFAN-86              
1 63172U 25046P   25335.44624992  .00000115  00000+0  15899-3 0  9995
2 63172  88.9756 320.9518 0011592 155.4070 204.7636 13.50972681 46024
QIANFAN-87              
1 63173U 25046Q   25335.49162963  .00000042  00000+0  45595-4 0  9992
2 63173  88.9752 321.0593 0012380 151.2770 208.9065 13.50971471 45963
QIANFAN-88              
1 63174U 25046R   25335.50800944  .00000098  00000+0  13351-3 0  9998
2 63174  88.9755 321.0117 0012535 159.0472 201.1196 13.50977291 45995
